start=new Date('2023-01-10T00:00:00.000Z').valueOf();
sats=[{"CENTER_NAME":"EARTH","MEAN_MOTION_DDOT":"0.0000000000000","FILE":"3737263","ECCENTRICITY":"0.00016260","TIME_SYSTEM":"UTC","MEAN_ANOMALY":"299.9612","APOAPSIS":"548.339","REF_FRAME":"TEME","GP_ID":"222542321","BSTAR":"0.00018724000000","OBJECT_ID":"2021-038AZ","COUNTRY_CODE":"US","OBJECT_NAME":"STARLINK-2576","RA_OF_ASC_NODE":"127.1171","RCS_SIZE":"LARGE","TLE_LINE2":"2 48400  53.0543 127.1171 0001626  60.1538 299.9612 15.06400110 93206","PERIAPSIS":"546.087","ARG_OF_PERICENTER":"60.1538","MEAN_ELEMENT_THEORY":"SGP4","MEAN_MOTION_DOT":"0.00002508","MEAN_MOTION":"15.06400110","ELEMENT_SET_NO":"999","INCLINATION":"53.0543","OBJECT_TYPE":"PAYLOAD","CLASSIFICATION_TYPE":"U","PERIOD":"95.592","TLE_LINE1":"1 48400U 21038AZ  23009.57809988  .00002508  00000-0  18724-3 0  9998","DECAY_DATE":null,"REV_AT_EPOCH":"9320","LAUNCH_DATE":"2021-05-04","SITE":"AFETR","EPHEMERIS_TYPE":"0","SEMIMAJOR_AXIS":"6925.348","EPOCH":"2023-01-09T13:52:27.829632","NORAD_CAT_ID":"48400"},{"COUNTRY_CODE":"US","RA_OF_ASC_NODE":"126.9709","OBJECT_NAME":"STARLINK-2571","TLE_LINE2":"2 48401  53.0535 126.9709 0001752  57.3224 302.7934 15.06408842 93202","RCS_SIZE":"LARGE","PERIAPSIS":"545.973","GP_ID":"222542571","BSTAR":"0.00022518000000","OBJECT_ID":"2021-038BA","APOAPSIS":"548.400","REF_FRAME":"TEME","MEAN_ANOMALY":"302.7934","MEAN_MOTION_DDOT":"0.0000000000000","CENTER_NAME":"EARTH","FILE":"3737263","TIME_SYSTEM":"UTC","ECCENTRICITY":"0.00017520","DECAY_DATE":null,"REV_AT_EPOCH":"9320","LAUNCH_DATE":"2021-05-04","SEMIMAJOR_AXIS":"6925.321","EPHEMERIS_TYPE":"0","EPOCH":"2023-01-09T14:45:32.632992","SITE":"AFETR","NORAD_CAT_ID":"48401","CLASSIFICATION_TYPE":"U","PERIOD":"95.592","TLE_LINE1":"1 48401U 21038BA  23009.61496103  .00003075  00000-0  22518-3 0  9991","INCLINATION":"53.0535","OBJECT_TYPE":"PAYLOAD","MEAN_ELEMENT_THEORY":"SGP4","ARG_OF_PERICENTER":"57.3224","MEAN_MOTION":"15.06408842","MEAN_MOTION_DOT":"0.00003075","ELEMENT_SET_NO":"999"},{"PERIOD":"95.593","CLASSIFICATION_TYPE":"U","TLE_LINE1":"1 48402U 21038BB  23009.70617478  .00000338  00000-0  41591-4 0  9994","SITE":"AFETR","EPOCH":"2023-01-09T16:56:53.500992","SEMIMAJOR_AXIS":"6925.367","EPHEMERIS_TYPE":"0","DECAY_DATE":null,"LAUNCH_DATE":"2021-05-04","REV_AT_EPOCH":"9381","NORAD_CAT_ID":"48402","ARG_OF_PERICENTER":"55.0192","MEAN_ELEMENT_THEORY":"SGP4","ELEMENT_SET_NO":"999","MEAN_MOTION_DOT":"0.00000338","MEAN_MOTION":"15.06393970","INCLINATION":"53.0528","OBJECT_TYPE":"PAYLOAD","BSTAR":"0.00004159100000","GP_ID":"222581667","OBJECT_ID":"2021-038BB","RCS_SIZE":"LARGE","TLE_LINE2":"2 48402  53.0528 126.5438 0001926  55.0192 305.0978 15.06393970 93818","PERIAPSIS":"545.898","OBJECT_NAME":"STARLINK-2560","COUNTRY_CODE":"US","RA_OF_ASC_NODE":"126.5438","FILE":"3737602","CENTER_NAME":"EARTH","MEAN_MOTION_DDOT":"0.0000000000000","ECCENTRICITY":"0.00019260","TIME_SYSTEM":"UTC","MEAN_ANOMALY":"305.0978","REF_FRAME":"TEME","APOAPSIS":"548.566"},{"SITE":"AFETR","SEMIMAJOR_AXIS":"6925.358","EPOCH":"2023-01-09T16:52:55.882848","EPHEMERIS_TYPE":"0","DECAY_DATE":null,"LAUNCH_DATE":"2021-05-04","REV_AT_EPOCH":"9381","NORAD_CAT_ID":"48403","PERIOD":"95.592","CLASSIFICATION_TYPE":"U","TLE_LINE1":"1 48403U 21038BC  23009.70342457  .00002174  00000-0  16478-3 0  9992","INCLINATION":"53.0544","OBJECT_TYPE":"PAYLOAD","ARG_OF_PERICENTER":"58.5409","MEAN_ELEMENT_THEORY":"SGP4","ELEMENT_SET_NO":"999","MEAN_MOTION":"15.06397025","MEAN_MOTION_DOT":"0.00002174","TLE_LINE2":"2 48403  53.0544 126.5469 0001370  58.5409 301.5713 15.06397025 93816","PERIAPSIS":"546.274","RCS_SIZE":"LARGE","COUNTRY_CODE":"US","RA_OF_ASC_NODE":"126.5469","OBJECT_NAME":"STARLINK-2561","BSTAR":"0.00016478000000","GP_ID":"222517813","OBJECT_ID":"2021-038BC","MEAN_ANOMALY":"301.5713","APOAPSIS":"548.171","REF_FRAME":"TEME","FILE":"3737163","CENTER_NAME":"EARTH","MEAN_MOTION_DDOT":"0.0000000000000","ECCENTRICITY":"0.00013700","TIME_SYSTEM":"UTC"},{"ARG_OF_PERICENTER":"65.9799","MEAN_ELEMENT_THEORY":"SGP4","ELEMENT_SET_NO":"999","MEAN_MOTION":"15.06382404","MEAN_MOTION_DOT":"0.00000907","INCLINATION":"53.0530","OBJECT_TYPE":"PAYLOAD","PERIOD":"95.593","CLASSIFICATION_TYPE":"U","TLE_LINE1":"1 48404U 21038BD  23009.69975316  .00000907  00000-0  79821-4 0  9991","SITE":"AFETR","SEMIMAJOR_AXIS":"6925.402","EPHEMERIS_TYPE":"0","EPOCH":"2023-01-09T16:47:38.673024","DECAY_DATE":null,"REV_AT_EPOCH":"9381","LAUNCH_DATE":"2021-05-04","NORAD_CAT_ID":"48404","FILE":"3737163","CENTER_NAME":"EARTH","MEAN_MOTION_DDOT":"0.0000000000000","ECCENTRICITY":"0.00019010","TIME_SYSTEM":"UTC","MEAN_ANOMALY":"294.1389","APOAPSIS":"548.584","REF_FRAME":"TEME","BSTAR":"0.00007982100000","GP_ID":"222517806","OBJECT_ID":"2021-038BD","TLE_LINE2":"2 48404  53.0530 126.5766 0001901  65.9799 294.1389 15.06382404 93817","RCS_SIZE":"LARGE","PERIAPSIS":"545.951","COUNTRY_CODE":"US","OBJECT_NAME":"STARLINK-2593","RA_OF_ASC_NODE":"126.5766"},{"GP_ID":"222518029","BSTAR":"0.00025449000000","OBJECT_ID":"2021-038BE","COUNTRY_CODE":"US","OBJECT_NAME":"STARLINK-2570","RA_OF_ASC_NODE":"126.5799","TLE_LINE2":"2 48405  53.0539 126.5799 0001429  73.8522 286.2625 15.06396728 93819","PERIAPSIS":"546.234","RCS_SIZE":"LARGE","MEAN_MOTION_DDOT":"0.0000000000000","CENTER_NAME":"EARTH","FILE":"3737164","TIME_SYSTEM":"UTC","ECCENTRICITY":"0.00014290","APOAPSIS":"548.213","REF_FRAME":"TEME","MEAN_ANOMALY":"286.2625","CLASSIFICATION_TYPE":"U","PERIOD":"95.592","TLE_LINE1":"1 48405U 21038BE  23009.69606733  .00003511  00000-0  25449-3 0  9996","DECAY_DATE":null,"REV_AT_EPOCH":"9381","LAUNCH_DATE":"2021-05-04","SEMIMAJOR_AXIS":"6925.359","EPOCH":"2023-01-09T16:42:20.217312","EPHEMERIS_TYPE":"0","SITE":"AFETR","NORAD_CAT_ID":"48405","MEAN_ELEMENT_THEORY":"SGP4","ARG_OF_PERICENTER":"73.8522","MEAN_MOTION":"15.06396728","MEAN_MOTION_DOT":"0.00003511","ELEMENT_SET_NO":"999","INCLINATION":"53.0539","OBJECT_TYPE":"PAYLOAD"},{"COUNTRY_CODE":"US","OBJECT_NAME":"STARLINK-2568","RA_OF_ASC_NODE":"126.6099","TLE_LINE2":"2 48406  53.0523 126.6099 0001785  53.5064 306.6089 15.06400089 93815","RCS_SIZE":"LARGE","PERIAPSIS":"545.977","OBJECT_ID":"2021-038BF","GP_ID":"222581662","BSTAR":"0.00041528000000","APOAPSIS":"548.449","REF_FRAME":"TEME","MEAN_ANOMALY":"306.6089","ECCENTRICITY":"0.00017850","TIME_SYSTEM":"UTC","MEAN_MOTION_DDOT":"0.0000000000000","CENTER_NAME":"EARTH","FILE":"3737602","NORAD_CAT_ID":"48406","LAUNCH_DATE":"2021-05-04","DECAY_DATE":null,"REV_AT_EPOCH":"9381","SEMIMAJOR_AXIS":"6925.348","EPHEMERIS_TYPE":"0","EPOCH":"2023-01-09T16:37:01.047072","SITE":"AFETR","TLE_LINE1":"1 48406U 21038BF  23009.69237323  .00005909  00000-0  41528-3 0  9991","CLASSIFICATION_TYPE":"U","PERIOD":"95.592","OBJECT_TYPE":"PAYLOAD","INCLINATION":"53.0523","MEAN_MOTION":"15.06400089","MEAN_MOTION_DOT":"0.00005909","ELEMENT_SET_NO":"999","MEAN_ELEMENT_THEORY":"SGP4","ARG_OF_PERICENTER":"53.5064"},{"NORAD_CAT_ID":"48407","SITE":"AFETR","SEMIMAJOR_AXIS":"6925.352","EPOCH":"2023-01-09T14:56:09.212640","EPHEMERIS_TYPE":"0","DECAY_DATE":null,"LAUNCH_DATE":"2021-05-04","REV_AT_EPOCH":"9320","TLE_LINE1":"1 48407U 21038BG  23009.62232885  .00000203  00000-0  32551-4 0  9992","PERIOD":"95.592","CLASSIFICATION_TYPE":"U","OBJECT_TYPE":"PAYLOAD","INCLINATION":"53.0546","ELEMENT_SET_NO":"999","MEAN_MOTION_DOT":"0.00000203","MEAN_MOTION":"15.06399026","ARG_OF_PERICENTER":"54.1591","MEAN_ELEMENT_THEORY":"SGP4","TLE_LINE2":"2 48407  53.0546 126.9207 0001643  54.1591 305.9550 15.06399026 93206","RCS_SIZE":"LARGE","PERIAPSIS":"546.079","RA_OF_ASC_NODE":"126.9207","COUNTRY_CODE":"US","OBJECT_NAME":"STARLINK-2595","OBJECT_ID":"2021-038BG","BSTAR":"0.00003255100000","GP_ID":"222543073","MEAN_ANOMALY":"305.9550","APOAPSIS":"548.354","REF_FRAME":"TEME","ECCENTRICITY":"0.00016430","TIME_SYSTEM":"UTC","FILE":"3737263","CENTER_NAME":"EARTH","MEAN_MOTION_DDOT":"0.0000000000000"},{"ECCENTRICITY":"0.00015030","TIME_SYSTEM":"UTC","MEAN_MOTION_DDOT":"0.0000000000000","CENTER_NAME":"EARTH","FILE":"3737263","REF_FRAME":"TEME","APOAPSIS":"548.258","MEAN_ANOMALY":"270.6791","OBJECT_ID":"2021-038BH","GP_ID":"222542322","BSTAR":"0.00016260000000","OBJECT_NAME":"STARLINK-2592","COUNTRY_CODE":"US","RA_OF_ASC_NODE":"126.9492","TLE_LINE2":"2 48408  53.0552 126.9492 0001503  89.4370 270.6791 15.06398935 93204","RCS_SIZE":"LARGE","PERIAPSIS":"546.176","MEAN_MOTION":"15.06398935","MEAN_MOTION_DOT":"0.00002141","ELEMENT_SET_NO":"999","MEAN_ELEMENT_THEORY":"SGP4","ARG_OF_PERICENTER":"89.4370","OBJECT_TYPE":"PAYLOAD","INCLINATION":"53.0552","TLE_LINE1":"1 48408U 21038BH  23009.61864184  .00002141  00000-0  16260-3 0  9996","CLASSIFICATION_TYPE":"U","PERIOD":"95.592","NORAD_CAT_ID":"48408","DECAY_DATE":null,"REV_AT_EPOCH":"9320","LAUNCH_DATE":"2021-05-04","EPOCH":"2023-01-09T14:50:50.654976","SEMIMAJOR_AXIS":"6925.352","EPHEMERIS_TYPE":"0","SITE":"AFETR"},{"PERIOD":"95.593","CLASSIFICATION_TYPE":"U","TLE_LINE1":"1 48409U 21038BJ  23009.70849457  .00001225  00000-0  10114-3 0  9997","SITE":"AFETR","EPOCH":"2023-01-09T17:00:13.930848","SEMIMAJOR_AXIS":"6925.369","EPHEMERIS_TYPE":"0","DECAY_DATE":null,"LAUNCH_DATE":"2021-05-04","REV_AT_EPOCH":"9374","NORAD_CAT_ID":"48409","ARG_OF_PERICENTER":"71.5397","MEAN_ELEMENT_THEORY":"SGP4","ELEMENT_SET_NO":"999","MEAN_MOTION":"15.06393293","MEAN_MOTION_DOT":"0.00001225","INCLINATION":"53.0530","OBJECT_TYPE":"PAYLOAD","BSTAR":"0.00010114000000","GP_ID":"222581329","OBJECT_ID":"2021-038BJ","TLE_LINE2":"2 48409  53.0530 131.5367 0001233  71.5397 288.5726 15.06393293 93742","RCS_SIZE":"LARGE","PERIAPSIS":"546.380","RA_OF_ASC_NODE":"131.5367","COUNTRY_CODE":"US","OBJECT_NAME":"STARLINK-2596","FILE":"3737603","CENTER_NAME":"EARTH","MEAN_MOTION_DDOT":"0.0000000000000","ECCENTRICITY":"0.00012330","TIME_SYSTEM":"UTC","MEAN_ANOMALY":"288.5726","REF_FRAME":"TEME","APOAPSIS":"548.088"}];
